CCSDS_OEM_VERS = 2.0
CREATION_DATE  = 2025-01-01T19:15:40.065
ORIGINATOR     = NASA/JSC/FOD/TOPO

META_START
OBJECT_NAME          = ISS
OBJECT_ID            = 1998-067-A
CENTER_NAME          = Earth
REF_FRAME            = EME2000
TIME_SYSTEM          = UTC
START_TIME           = 2025-01-01T12:00:00.000
USEABLE_START_TIME   = 2025-01-01T12:00:00.000
USEABLE_STOP_TIME    = 2025-01-16T12:00:00.000
STOP_TIME            = 2025-01-16T12:00:00.000
META_STOP

COMMENT Source: This file was produced by the TOPO office within FOD at JSC.
COMMENT Units are in kg and m^2
COMMENT MASS=460802.00
COMMENT DRAG_AREA=1512.00
COMMENT DRAG_COEFF=2.70
COMMENT SOLAR_RAD_AREA=0.00
COMMENT SOLAR_RAD_COEFF=0.00
COMMENT Orbits start at the ascending node epoch
COMMENT ISS first asc. node: EPOCH = 2025-01-01T12:31:43.326 $ ORBIT = 931 $ LAN(DEG) = 123.34375
COMMENT ISS last asc. node : EPOCH = 2025-01-16T11:21:53.065 $ ORBIT = 1163 $ LAN(DEG) = 51.91938
COMMENT Begin sequence of events
COMMENT TRAJECTORY EVENT SUMMARY:
COMMENT 
COMMENT |       EVENT        |       TIG        | ORB |   DV    |   HA    |   HP    |
COMMENT |                    |       GMT        |     |   M/S   |   KM    |   KM    |
COMMENT |                    |                  |     |  (F/S)  |  (NM)   |  (NM)   |
COMMENT =============================================================================
COMMENT  GMT011 Reboost        011:17:52:00.000             1.7     423.1     403.1
COMMENT                                                    (5.6)   (228.5)   (217.7)
COMMENT 
COMMENT =============================================================================
COMMENT End sequence of events
2025-01-11T18:03:14.000 573.721907602442 -4197.285343224320 -5319.364856072160 7.61974382161540 0.54305420602218 0.39537617755933
2025-01-11T18:03:16.000 588.959935476591 -4196.188625431770 -5318.560619654230 7.61827763217292 0.55366313026783 0.40885990773542
2025-01-11T18:03:18.000 604.194992452074 -4195.070692545960 -5317.729417794320 7.61677292414741 0.56426929043749 0.42234160826186
2025-01-11T18:03:20.000 619.427001498970 -4193.931550148100 -5316.871254619360 7.61522970481200 0.57487263348423 0.43582121151386
2025-01-11T18:03:22.000 634.655885602086 -4192.771203925470 -5315.986134391520 7.61364798162760 0.58547310637233 0.44929864987503
2025-01-11T18:03:24.000 649.881567761342 -4191.589659671400 -5315.074061508190 7.61202776224291 0.59607065607751 0.46277385573774
2025-01-11T18:03:26.000 665.103970992144 -4190.386923285290 -5314.135040501970 7.61036905449455 0.60666522958718 0.47624676150337
2025-01-11T18:03:28.000 680.323018325757 -4189.163000772520 -5313.169076040640 7.60867186640713 0.61725677390057 0.48971729958263
2025-01-11T18:03:30.000 695.538632809684 -4187.917898244480 -5312.176172927150 7.60693620619334 0.62784523602905 0.50318540239586
2025-01-11T18:03:32.000 710.750737508042 -4186.651621918510 -5311.156336099610 7.60516208225403 0.63843056299633 0.51665100237332
2025-01-11T18:03:34.000 725.959255501938 -4185.364178117910 -5310.109570631260 7.60334950317830 0.64901270183870 0.53011403195551
2025-01-11T18:03:36.000 741.164109889845 -4184.055573271870 -5309.035881730420 7.60149847774357 0.65959159960531 0.54357442359349
2025-01-11T18:03:38.000 756.365223787980 -4182.725813915500 -5307.935274740540 7.59960901491566 0.67016720335840 0.55703210974920
2025-01-11T18:03:40.000 771.562520330678 -4181.374906689730 -5306.807755140100 7.59768112384886 0.68073946017360 0.57048702289574
2025-01-11T18:03:42.000 786.755922670773 -4180.002858341370 -5305.653328542640 7.59571481388601 0.69130831714020 0.58393909551777
2025-01-11T18:03:44.000 801.945353979975 -4178.609675723000 -5304.472000696710 7.59371009455858 0.70187372136140 0.59738826011177
2025-01-11T18:03:46.000 817.130737449241 -4177.195365793010 -5303.263777485870 7.59166697558669 0.71243561995467 0.61083444918640
2025-01-11T18:03:48.000 832.311996289160 -4175.759935615510 -5302.028664928630 7.58958546687922 0.72299396005199 0.62427759526283
2025-01-11T18:03:50.000 847.489053730328 -4174.303392360370 -5300.766669178460 7.58746557853381 0.73354868880018 0.63771763087509
2025-01-11T18:03:52.000 862.661833023723 -4172.825743303100 -5299.477796523740 7.58530732083694 0.74409975336123 0.65115448857037
2025-01-11T18:03:54.000 877.830257441087 -4171.326995824930 -5298.162053387750 7.58311070426398 0.75464710091258 0.66458810090942
2025-01-11T18:03:56.000 892.994250275301 -4169.807157412670 -5296.819446328630 7.58087573947919 0.76519067864746 0.67801840046685
2025-01-11T18:03:58.000 908.153734840761 -4168.266235658740 -5295.449982039340 7.57860243733576 0.77573043377525 0.69144531983148
2025-01-11T18:04:00.000 923.308634473762 -4166.704238261150 -5294.053667347690 7.57629080887584 0.78626631352176 0.70486879160672
2025-01-11T18:04:02.000 938.458872532870 -4165.121173023420 -5292.630509216230 7.57394086533056 0.79679826512961 0.71828874841087
2025-01-11T18:04:04.000 953.604372399303 -4163.517047854550 -5291.180514742270 7.57155261812002 0.80732623585856 0.73170512287752
2025-01-11T18:04:06.000 968.745057477308 -4161.891870769050 -5289.703691157850 7.56912607885328 0.81785017298583 0.74511784765587
2025-01-11T18:04:08.000 983.880851194540 -4160.245649886820 -5288.200045829670 7.56666125932837 0.82837002380652 0.75852685541110
2025-01-11T18:04:10.000 999.011677002437 -4158.578393433150 -5286.669586259100 7.56415817153229 0.83888573563385 0.77193207882471
2025-01-11T18:04:12.000 1014.137458376600 -4156.890109738720 -5285.112320082130 7.56161682764095 0.84939725579964 0.78533345059488
2025-01-11T18:04:14.000 1029.258118817180 -4155.180807239500 -5283.528255069340 7.55903724001913 0.85990453165456 0.79873090343681
2025-01-11T18:04:16.000 1044.373581849220 -4153.450494476730 -5281.917399125850 7.55641942122051 0.87040751056853 0.81212437008310
2025-01-11T18:04:18.000 1059.483771023100 -4151.699180096920 -5280.279760291300 7.55376338398752 0.88090613993107 0.82551378328409
2025-01-11T18:04:20.000 1074.588609914830 -4149.926872851770 -5278.615346739830 7.55106914125139 0.89140036715167 0.83889907580819
2025-01-11T18:04:22.000 1089.688022126510 -4148.133581598130 -5276.924166780000 7.54833670613201 0.90189013966012 0.85228018044227
2025-01-11T18:04:24.000 1104.781931286640 -4146.319315297970 -5275.206228854780 7.54556609193790 0.91237540490686 0.86565702999199
2025-01-11T18:04:26.000 1119.870261050540 -4144.484083018360 -5273.461541541540 7.54275731216610 0.92285611036335 0.87902955728213
2025-01-11T18:04:28.000 1134.952935100710 -4142.627893931380 -5271.690113551930 7.53991038050213 0.93333220352241 0.89239769515698
2025-01-11T18:04:30.000 1150.029877147200 -4140.750757314120 -5269.891953731940 7.53702531081986 0.94380363189856 0.90576137648064
2025-01-11T18:04:32.000 1165.101010928010 -4138.852682548620 -5268.067071061790 7.53410211718143 0.95427034302837 0.91912053413740
2025-01-11T18:04:34.000 1180.166260209450 -4136.933679121800 -5266.215474655900 7.53114081383716 0.96473228447080 0.93247510103205
2025-01-11T18:04:36.000 1195.225548786510 -4134.993756625470 -5264.337173762880 7.52814141522540 0.97518940380750 0.94582501009026
2025-01-11T18:04:38.000 1210.278800483250 -4133.032924756240 -5262.432177765470 7.52510393597244 0.98564164864321 0.95917019425888
2025-01-11T18:04:40.000 1225.325939153180 -4131.051193315480 -5260.500496180460 7.52202839089243 0.99608896660602 0.97251058650626
2025-01-11T18:04:42.000 1240.366888679600 -4129.048572209300 -5258.542138658730 7.51891479498716 1.00653130534768 0.98584611982265
2025-01-11T18:04:44.000 1255.401572976030 -4127.025071448460 -5256.557114985120 7.51576316344601 1.01696861254400 0.99917672722047
2025-01-11T18:04:46.000 1270.429915986540 -4124.980701148350 -5254.545435078440 7.51257351164581 1.02740083589505 1.01250234173465
2025-01-11T18:04:48.000 1285.451841686150 -4122.915471528960 -5252.507108991400 7.50934585515066 1.03782792312553 1.02582289642295
2025-01-11T18:04:50.000 1300.467274081180 -4120.829392914760 -5250.442146910580 7.50608020971181 1.04824982198504 1.03913832436632
2025-01-11T18:04:52.000 1315.476137209650 -4118.722475734750 -5248.350559156360 7.50277659126757 1.05866648024837 1.05244855866915
2025-01-11T18:04:54.000 1330.478355141660 -4116.594730522300 -5246.232356182910 7.49943501594306 1.06907784571576 1.06575353245965
2025-01-11T18:04:56.000 1345.473851979710 -4114.446167915200 -5244.087548578100 7.49605550005016 1.07948386621322 1.07905317889012
2025-01-11T18:04:58.000 1360.462551859140 -4112.276798655530 -5241.916147063470 7.49263806008733 1.08988448959275 1.09234743113728
2025-01-11T18:05:00.000 1375.444378948460 -4110.086633589660 -5239.718162494200 7.48918271273944 1.10027966373260 1.10563622240258
2025-01-11T18:05:02.000 1390.419257449750 -4107.875683668160 -5237.493605859030 7.48568947487765 1.11066933653756 1.11891948591249
2025-01-11T18:05:04.000 1405.387111599000 -4105.643959945770 -5235.242488280220 7.48215836355925 1.12105345593916 1.13219715491881
2025-01-11T18:05:06.000 1420.347865666510 -4103.391473581360 -5232.964821013510 7.47858939602752 1.13143196989593 1.14546916269897
2025-01-11T18:05:08.000 1435.301443957250 -4101.118235837830 -5230.660615448040 7.47498258971158 1.14180482639362 1.15873544255635
2025-01-11T18:05:10.000 1450.247770811240 -4098.824258082090 -5228.329883106340 7.47133796222623 1.15217197344542 1.17199592782051
2025-01-11T18:05:12.000 1465.186770603900 -4096.509551784990 -5225.972635644250 7.46765553137184 1.16253335909217 1.18525055184757
2025-01-11T18:05:14.000 1480.118367746470 -4094.174128521280 -5223.588884850860 7.46393531513418 1.17288893140259 1.19849924802044
2025-01-11T18:05:16.000 1495.042486686300 -4091.817999969540 -5221.178642648470 7.46017733168430 1.18323863847345 1.21174194974914
2025-01-11T18:05:18.000 1509.959051907290 -4089.441177912130 -5218.741921092530 7.45638159937837 1.19358242842978 1.22497859047105
